NORAD_CAT_ID,OBJECT_NAME,OBJECT_TYPE,EPOCH,MEAN_MOTION,ECCENTRICITY,INCLINATION,RA_OF_ASC_NODE,ARG_OF_PERICENTER,MEAN_ANOMALY,BSTAR,MEAN_MOTION_DOT,MEAN_MOTION_DDOT,TLE_LINE0,TLE_LINE1,TLE_LINE2,SEMIMAJOR_AXIS,PERIOD,APOGEE,PERIGEE,DECAYED
51117.0,STARLINK-3391,PAYLOAD,2022-03-26 14:00:01,15.73175173,0.0003203,53.2144,305.2024,10.865,270.5137,0.00033527,0.00046652,0.0,0 STARLINK-3391,1 51117U 22005P   22085.58334491  .00046652  00000-0  33527-3 0  9994,2 51117  53.2144 305.2024 0003203  10.8650 270.5137 15.73175173  3671,6727.965999999999,91.535,351.986,347.676,0.0
51117.0,STARLINK-3391,PAYLOAD,2022-03-26 20:00:01,15.73234436,0.0003364,53.214,303.9671,8.4101,249.651,-0.00051015,-0.00071742,0.0,0 STARLINK-3391,1 51117U 22005P   22085.83334491 -.00071742  00000-0 -51015-3 0  9994,2 51117  53.2140 303.9671 0003364   8.4101 249.6510 15.73234436 11839,6727.797,91.531,351.925,347.399,0.0
51117.0,STARLINK-3391,PAYLOAD,2022-03-26 22:00:00,15.73225655,0.0003427,53.214,303.555,8.2877,2.0111,-0.00049509,-0.00069635,0.0,0 STARLINK-3391,1 51117U 22005P   22085.91667824 -.00069635  00000-0 -49509-3 0  9995,2 51117  53.2140 303.5550 0003427   8.2877   2.0111 15.73225655  3707,6727.821999999999,91.532,351.99300000000005,347.381,0.0
51117.0,STARLINK-3391,PAYLOAD,2022-03-27 14:00:01,15.73377128,0.000293,53.2149,300.243,10.9058,177.1892,-0.0028092,-0.00380608,0.0,0 STARLINK-3391,1 51117U 22005P   22086.58334491 -.00380608  00000-0 -28092-2 0  9999,2 51117  53.2149 300.2430 0002930  10.9058 177.1892 15.73377128 11944,6727.39,91.523,351.226,347.284,0.0
51117.0,STARLINK-3391,PAYLOAD,2022-03-27 22:00:01,15.73186707,0.0003518,53.2137,298.6065,10.1785,266.9873,0.00036778,0.00051293,0.0,0 STARLINK-3391,1 51117U 22005P   22086.91668981  .00051293  00000-0  36778-3 0  9994,2 51117  53.2137 298.6065 0003518  10.1785 266.9873 15.73186707 12002,6727.933000000001,91.534,352.165,347.431,0.0
51117.0,STARLINK-3391,PAYLOAD,2022-03-28 14:00:01,15.73248353,0.0003337,53.2136,295.3051,10.2224,84.8763,-0.00040821,-0.0005766,0.0,0 STARLINK-3391,1 51117U 22005P   22087.58335648 -.00057660  00000-0 -40821-3 0  9999,2 51117  53.2136 295.3051 0003337  10.2224  84.8763 15.73248353  3706,6727.757,91.53,351.867,347.37699999999984,0.0
51117.0,STARLINK-3391,PAYLOAD,2022-03-28 22:00:00,15.73213926,0.0003613,53.2131,293.6577,9.8315,174.1697,-0.00030345,-0.00043036,0.0,0 STARLINK-3391,1 51117U 22005P   22087.91667824 -.00043036  00000-0 -30345-3 0  9992,2 51117  53.2131 293.6577 0003613   9.8315 174.1697 15.73213926 12153,6727.855,91.532,352.151,347.29,0.0
51117.0,STARLINK-3391,PAYLOAD,2022-03-29 14:00:01,15.73161882,0.0003315,53.2127,290.3565,7.1863,354.6135,-0.00025163,-0.00035742,0.0,0 STARLINK-3391,1 51117U 22005P   22088.58334491 -.00035742  00000-0 -25163-3 0  9994,2 51117  53.2127 290.3565 0003315   7.1863 354.6135 15.73161882  3668,6728.004,91.535,352.099,347.639,0.0
51117.0,STARLINK-3391,PAYLOAD,2022-03-29 22:00:00,15.73112596,0.0003637,53.2127,288.7091,8.8093,81.861,0.00063805,0.00089571,0.0,0 STARLINK-3391,1 51117U 22005P   22088.91667824  .00089571  00000-0  63805-3 0  9992,2 51117  53.2127 288.7091 0003637   8.8093  81.8610 15.73112596  3668,6728.144,91.538,352.456,347.56199999999984,0.0
51117.0,STARLINK-3391,PAYLOAD,2022-03-30 02:00:01,15.73147818,0.0003703,53.2124,287.8841,7.5823,307.5074,0.00055864,0.0007836,0.0,0 STARLINK-3391,1 51117U 22005P   22089.08334491  .00078360  00000-0  55864-3 0  9992,2 51117  53.2124 287.8841 0003703   7.5823 307.5074 15.73147818 12341,6728.044,91.536,352.4,347.418,0.0
51117.0,STARLINK-3391,PAYLOAD,2022-03-30 14:00:01,15.732346,0.0003478,53.2128,285.4078,8.9113,259.5969,0.0003029,0.00042175,0.0,0 STARLINK-3391,1 51117U 22005P   22089.58335648  .00042175  00000-0  30290-3 0  9993,2 51117  53.2128 285.4078 0003478   8.9113 259.5969 15.73234600  3678,6727.797,91.531,352.001,347.32199999999995,0.0
51117.0,STARLINK-3391,PAYLOAD,2022-03-30 20:00:01,15.73265797,0.000376,53.2138,284.1664,7.4865,237.6978,-0.00034259,-0.00048584,0.0,0 STARLINK-3391,1 51117U 22005P   22089.83334491 -.00048584  00000-0 -34259-3 0  9997,2 51117  53.2138 284.1664 0003760   7.4865 237.6978 15.73265797 12463,6727.708000000001,91.529,352.102,347.043,0.0
51117.0,STARLINK-3391,PAYLOAD,2022-03-30 22:00:00,15.73269436,0.00039,53.2142,283.7523,6.0759,351.3590000000001,-0.00058846,-0.0008269,0.0,0 STARLINK-3391,1 51117U 22005P   22089.91667824 -.00082690  00000-0 -58846-3 0  9999,2 51117  53.2142 283.7523 0003900   6.0759 351.3590 15.73269436  3727,6727.696999999999,91.529,352.186,346.93800000000016,0.0
51117.0,STARLINK-3391,PAYLOAD,2022-03-31 06:00:00,15.73042227,0.0003766,53.2156,282.0925,2.8517,83.6195,-0.0018411,-0.0024994,0.0,0 STARLINK-3391,1 51117U 22005P   22090.25001157 -.00249940  00000-0 -18411-2 0  9995,2 51117  53.2156 282.0925 0003766   2.8517  83.6195 15.73042227 12527,6728.345,91.542,352.744,347.676,0.0
51117.0,STARLINK-3391,PAYLOAD,2022-03-31 14:00:01,15.73004176,0.0003604,53.2174,280.4346,6.9507,168.1448,-0.0056231,-0.00720121,0.0,0 STARLINK-3391,1 51117U 22005P   22090.58334491 -.00720121  00000-0 -56231-2 0  9998,2 51117  53.2174 280.4346 0003604   6.9507 168.1448 15.73004176 12577,6728.454000000002,91.545,352.74300000000005,347.894,0.0
51117.0,STARLINK-3391,PAYLOAD,2022-03-31 22:00:00,15.72405348,0.0003245,53.2166,278.7922,6.5018,257.0173,-0.0047696,-0.00603552,0.0,0 STARLINK-3391,1 51117U 22005P   22090.91667824 -.00603552  00000-0 -47696-2 0  9997,2 51117  53.2166 278.7922 0003245   6.5018 257.0173 15.72405348  3671,6730.1619999999975,91.579,354.211,349.843,0.0
51117.0,STARLINK-3391,PAYLOAD,2022-04-01 14:00:01,15.71472769,0.0003616,53.2177,275.4932,3.451,74.9452,-0.0059896,-0.00718556,0.0,0 STARLINK-3391,1 51117U 22005P   22091.58334491 -.00718556  00000-0 -59896-2 0  9998,2 51117  53.2177 275.4932 0003616   3.4510  74.9452 15.71472769 12736,6732.824000000001,91.634,357.124,352.255,0.0
51117.0,STARLINK-3391,PAYLOAD,2022-04-01 22:00:00,15.70962068,0.0003168,53.2176,273.8503,348.2583,176.6784,-0.0061181,-0.00718147,0.0,0 STARLINK-3391,1 51117U 22005P   22091.91667824 -.00718147  00000-0 -61181-2 0  9990,2 51117  53.2176 273.8503 0003168 348.2583 176.6784 15.70962068  3679,6734.283,91.664,358.282,354.015,0.0
51117.0,STARLINK-3391,PAYLOAD,2022-04-02 06:00:00,15.7022451,0.0006638999999999,53.2168,272.2091,288.3111,322.6822,-0.0035809,-0.00422857,0.0,0 STARLINK-3391,1 51117U 22005P   22092.25001157 -.00422857  00000-0 -35809-2 0  9997,2 51117  53.2168 272.2091 0006639 288.3111 322.6822 15.70224510 12840,6736.392,91.707,362.729,353.785,0.0
51117.0,STARLINK-3391,PAYLOAD,2022-04-02 14:00:01,15.69942828,0.0006041,53.2175,270.563,303.3818,32.864000000000004,-0.0063713,-0.00717579,0.0,0 STARLINK-3391,1 51117U 22005P   22092.58335648 -.00717579  00000-0 -63713-2 0  9991,2 51117  53.2175 270.5630 0006041 303.3818  32.8640 15.69942828 12897,6737.198,91.723,363.133,354.99300000000005,0.0
51117.0,STARLINK-3391,PAYLOAD,2022-04-02 22:00:01,15.69436506,0.0003734,53.2173,268.9239,289.0212,131.9251,-0.0065837,-0.00724474,0.0,0 STARLINK-3391,1 51117U 22005P   22092.91668981 -.00724474  00000-0 -65837-2 0  9998,2 51117  53.2173 268.9239 0003734 289.0212 131.9251 15.69436506  3705,6738.646,91.753,363.028,357.995,0.0
51117.0,STARLINK-3391,PAYLOAD,2022-04-03 14:00:01,15.68410742,0.0001161,53.2177,265.6442,28.0849,200.3661,-0.00677,-0.00714111,0.0,0 STARLINK-3391,1 51117U 22005P   22093.58334491 -.00714111  00000-0 -67700-2 0  9996,2 51117  53.2177 265.6442 0001161  28.0849 200.3661 15.68410742 13056,6741.584,91.813,364.232,362.667,0.0
51117.0,STARLINK-3391,PAYLOAD,2022-04-03 22:00:00,15.67900977,0.0001093,53.2175,264.0086,76.6269,234.687,-0.0069121,-0.00713938,0.0,0 STARLINK-3391,1 51117U 22005P   22093.91667824 -.00713938  00000-0 -69121-2 0  9997,2 51117  53.2175 264.0086 0001093  76.6269 234.6870 15.67900977  3694,6743.045,91.843,365.647,364.173,0.0
51117.0,STARLINK-3391,PAYLOAD,2022-04-04 14:00:01,15.668832,0.0001359,53.2175,260.7366,49.5762,65.6281,-0.0072461,-0.00717616,0.0,0 STARLINK-3391,1 51117U 22005P   22094.58334491 -.00717616  00000-0 -72461-2 0  9990,2 51117  53.2175 260.7366 0001359  49.5762  65.6281 15.66883200 13204,6745.965,91.902,368.747,366.913,0.0
51117.0,STARLINK-3391,PAYLOAD,2022-04-04 22:00:00,15.66368174,0.0001262,53.2172,259.1046,67.09100000000001,129.1399,-0.0073002,-0.00708736,0.0,0 STARLINK-3391,1 51117U 22005P   22094.91667824 -.00708736  00000-0 -73002-2 0  9991,2 51117  53.2172 259.1046 0001262  67.0910 129.1399 15.66368174  3710,6747.444,91.932,370.16,368.457,0.0
51117.0,STARLINK-3391,PAYLOAD,2022-04-05 14:00:01,15.65354563,0.0001278,53.2176,255.84,49.4269,307.0814,-0.0077305,-0.00719441,0.0,0 STARLINK-3391,1 51117U 22005P   22095.58335648 -.00719441  00000-0 -77305-2 0  9996,2 51117  53.2176 255.8400 0001278  49.4269 307.0814 15.65354563 13366,6750.356,91.992,373.084,371.359,0.0
51117.0,STARLINK-3391,PAYLOAD,2022-04-05 22:00:00,15.64840934,0.0001128,53.2173,254.2115,60.7488,14.882,-0.0078118,-0.00712726,0.0,0 STARLINK-3391,1 51117U 22005P   22095.91667824 -.00712726  00000-0 -78118-2 0  9999,2 51117  53.2173 254.2115 0001128  60.7488  14.8820 15.64840934  3700,6751.833000000001,92.022,374.46,372.937,0.0
51117.0,STARLINK-3391,PAYLOAD,2022-04-06 14:00:01,15.6382197,0.0001512,53.2177,250.9547,48.4234,183.7445,-0.0081555999999999,-0.00714388,0.0,0 STARLINK-3391,1 51117U 22005P   22096.58334491 -.00714388  00000-0 -81556-2 0  9990,2 51117  53.2177 250.9547 0001512  48.4234 183.7445 15.63821970  3702,6754.766,92.082,377.652,375.61,0.0
51117.0,STARLINK-3391,PAYLOAD,2022-04-06 22:00:00,15.63312086,0.0001194,53.2173,249.3297,59.4027,250.1132,-0.0083125,-0.00713568,0.0,0 STARLINK-3391,1 51117U 22005P   22096.91667824 -.00713568  00000-0 -83125-2 0  9999,2 51117  53.2173 249.3297 0001194  59.4027 250.1132 15.63312086 13571,6756.235,92.112,378.906,377.293,0.0
